GLOBALSTAR M084         
1 38040U 11080A   24141.40823608 -.00000062  00000+0  23262-3 0  9994
2 38040  51.9984 164.2349 0000165 267.6598 201.4221 12.62262695573061
GLOBALSTAR M080         
1 38041U 11080B   24141.46962122 -.00000058  00000+0  25769-3 0  9995
2 38041  52.0036 165.5177 0000405 229.8390 277.7438 12.62272949573195
GLOBALSTAR M082         
1 38042U 11080C   24141.40744321 -.00000089  00000+0  81343-4 0  9994
2 38042  52.0060 121.1109 0000882  46.8803 117.4667 12.62269713573897
GLOBALSTAR M092         
1 38043U 11080D   24141.52631851 -.00000088  00000+0  88556-4 0  9993
2 38043  52.0072 211.1038 0000200 137.8661 328.6766 12.62262558572366
GLOBALSTAR M090         
1 38044U 11080E   24141.35072279 -.00000093  00000+0  62384-4 0  9995
2 38044  51.9869 115.5969 0000628  55.4101  91.6901 12.62263342574000
GLOBALSTAR M086         
1 38045U 11080F   24141.38082722 -.00000082  00000+0  11910-3 0  9999
2 38045  51.9883 116.0253 0000790 150.1118  14.2675 12.62271145573952
GLOBALSTAR M097         
1 39072U 13005A   24141.05481564 -.00000085  00000+0  10312-3 0  9998
2 39072  52.0071  31.1692 0000957  85.7735 274.3241 12.62263029521167
GLOBALSTAR M093         
1 39073U 13005B   24141.10734041 -.00000077  00000+0  15106-3 0  9993
2 39073  51.9834  24.9402 0001089  88.3410 271.7581 12.62259324521125
